[{"OBJECT_NAME":"TIANMU-1 10","OBJECT_ID":"2023-101D","EPOCH":"2026-03-09T23:06:46.939392","MEAN_MOTION":15.2921896,"ECCENTRICITY":0.00069292,"INCLINATION":97.2749,"RA_OF_ASC_NODE":122.1027,"ARG_OF_PERICENTER":133.6162,"MEAN_ANOMALY":226.5654,"EPHEMERIS_TYPE":0,"CLASSIFICATION_TYPE":"U","NORAD_CAT_ID":57402,"ELEMENT_SET_NO":999,"REV_AT_EPOCH":14647,"BSTAR":0.00032238884,"MEAN_MOTION_DOT":9.075e-5,"MEAN_MOTION_DDOT":0},{"OBJECT_NAME":"STARLINK-31707","OBJECT_ID":"2024-090G","EPOCH":"2026-03-08T09:35:17.251872","MEAN_MOTION":15.27582757,"ECCENTRICITY":0.00018489,"INCLINATION":43.0032,"RA_OF_ASC_NODE":190.709,"ARG_OF_PERICENTER":193.7061,"MEAN_ANOMALY":166.3741,"EPHEMERIS_TYPE":0,"CLASSIFICATION_TYPE":"U","NORAD_CAT_ID":59736,"ELEMENT_SET_NO":999,"REV_AT_EPOCH":10324,"BSTAR":2.113807e-5,"MEAN_MOTION_DOT":3.19e-6,"MEAN_MOTION_DDOT":0}]
